OBJECT_NAME,OBJECT_ID,EPOCH,MEAN_MOTION,ECCENTRICITY,INCLINATION,RA_OF_ASC_NODE,ARG_OF_PERICENTER,MEAN_ANOMALY,EPHEMERIS_TYPE,CLASSIFICATION_TYPE,NORAD_CAT_ID,ELEMENT_SET_NO,REV_AT_EPOCH,BSTAR,MEAN_MOTION_DOT,MEAN_MOTION_DDOT
CUBEBUG-2 (LO-74),2013-066AA,2026-06-14T02:46:43.226976,14.93738647,.0058614,97.8903,114.0809,38.9303,321.6115,0,U,39440,999,67653,.41941E-3,.4533E-4,0
FUNCUBE-1 (AO-73),2013-066AE,2026-06-13T20:59:27.159360,15.09452478,.00353773,97.8267,136.2511,212.6416,147.2626,0,U,39444,999,67916,.45803274E-3,.7372E-4,0
UWE-3,2013-066AG,2026-06-13T19:21:45.292608,14.96999955,.00481152,97.8688,120.8577,332.4032,27.4636,0,U,39446,999,67707,.38954975E-3,.4526E-4,0
UNISAT-6,2014-033C,2026-06-14T02:35:07.884960,14.88231889,.0046328,97.7871,317.8739,79.1987,281.4440,0,U,40012,999,64570,.33204E-3,.307E-4,0
DUCHIFAT-1,2014-033M,2026-06-14T03:26:03.729408,15.64039026,.0003417,98.0474,223.8762,119.3968,240.7631,0,U,40021,999,65527,.11822E-2,.112865E-2,0
QB50P1,2014-033R,2026-06-13T23:40:36.461568,15.18216590,.0007562,98.0960,175.9078,228.0389,132.0200,0,U,40025,999,65254,.43164E-3,.8764E-4,0
LILACSAT-2,2015-049K,2026-06-14T04:13:48.672192,15.51356675,.0005354,97.4649,201.9032,259.3379,100.7270,0,U,40908,999,59528,.29746E-3,.17413E-3,0
FOX-1A (AO-85),2015-058D,2026-06-14T01:34:52.870944,14.90956726,.0130258,64.7761,288.6834,57.8004,303.5661,0,U,40967,999,11310,.22792E-3,.2476E-4,0
CAS-2T & KS-1Q,2016-066G,2026-06-14T04:38:06.158976,14.44685244,.0342703,98.3820,240.9636,138.5317,224.2432,0,U,41847,999,50436,.23241E-3,.1608E-4,0
RADFXSAT (FOX-1B),2017-073E,2026-06-14T03:57:52.147296,15.12676252,.015002,97.4711,32.4423,339.7576,19.7744,0,U,43017,999,46493,.37613E-3,.8607E-4,0
DIWATA-2B,2018-084H,2026-06-14T04:03:14.044320,15.00439470,.0012301,98.1178,1.2463,179.9553,180.1673,0,U,43678,999,41576,.20647E-3,.2535E-4,0
ES'HAIL 2,2018-090A,2026-06-14T02:57:51.823008,1.00269053,.0001525,0.0151,6.1275,117.1684,209.3955,0,U,43700,999,2764,0,.153E-5,0
FOX-1CLIFF (AO-95),2018-099N,2026-06-14T03:04:39.014112,15.26654463,.0008298,97.4390,225.3853,9.0334,351.1052,0,U,43770,999,41275,.45845E-3,.11968E-3,0
ITASAT,2018-099AE,2026-06-14T02:57:29.670048,15.19023460,.0012428,97.4033,216.6958,11.1997,348.9512,0,U,43786,999,41244,.31978E-3,.6642E-4,0
JY1SAT (JO-97),2018-099AX,2026-06-14T03:49:49.540224,15.33568110,.0004214,97.4134,227.9830,277.2169,82.8595,0,U,43803,999,41316,.51563E-3,.16674E-3,0
UWE-4,2018-111E,2026-06-13T18:50:04.199712,15.45933781,.00061312,97.5857,93.0195,357.5273,2.5945,0,U,43880,999,41025,.70749488E-3,.34468E-3,0
TIANYAN 01,2019-093C,2026-06-14T03:36:26.491968,14.86514601,.0015044,97.7536,237.4560,96.1580,264.1350,0,U,44881,999,35096,.11919E-3,.1003E-4,0
RS-44 & BREEZE-KM R/B,2019-096E,2026-06-14T04:34:33.060288,12.79748810,.0218056,82.5218,341.6965,151.1526,210.1839,0,U,44909,999,30196,.42004E-4,.23E-6,0
SALSAT,2020-068K,2026-06-14T00:08:22.352064,15.29759103,.0008281,97.8843,167.8766,321.5879,38.4769,0,U,46495,999,31487,.28632E-3,.8178E-4,0
XW-3 (CAS-9),2021-131B,2026-06-14T05:00:07.690176,14.41355076,.0005347,98.4982,257.6139,103.5043,256.6742,0,U,50466,999,23468,.17409E-3,.52E-5,0
GREENCUBE (IO-117),2022-080E,2026-06-13T07:02:28.697280,6.42583230,.00089108,70.1444,299.5995,290.4576,69.5127,0,U,53109,999,9181,0,-.3E-7,0
UMKA 1 (RS40S),2023-091G,2026-06-14T04:46:21.624096,15.20787062,.0014132,97.5056,223.9073,126.9272,233.3260,0,U,57172,999,16355,.28271E-3,.6176E-4,0
CUBESX-HSE 3 (RS42S),2023-091N,2026-06-14T04:01:28.731360,15.31147442,.0012109,97.5100,230.7164,103.9551,256.3038,0,U,57178,999,16396,.4411E-3,.13231E-3,0
MONITOR-3 (RS58S),2023-091Q,2026-06-14T04:27:10.248192,15.27789290,.0013109,97.5090,228.6090,109.9740,250.2912,0,U,57180,999,16383,.42448E-3,.11479E-3,0
MONITOR-4 (RS57S),2023-091S,2026-06-14T03:57:15.166368,15.27874419,.0013123,97.5085,228.5594,110.3785,249.8865,0,U,57182,999,16383,.36769E-3,.9957E-4,0
MONITOR-2 (RS39S),2023-091U,2026-06-14T03:36:42.444000,15.18886100,.0012652,97.5078,223.4529,120.2773,239.9715,0,U,57184,999,16349,.24696E-3,.5092E-4,0
SVYATOBOR 1 (RS60S),2023-091X,2026-06-14T02:37:59.513376,15.26569436,.0010906,97.5096,228.9095,103.6026,256.6428,0,U,57187,999,16384,.38293E-3,.9962E-4,0
VIZARD-METEO (RS38S),2023-091Z,2026-06-14T03:37:14.272896,15.35941135,.0008437,97.5100,234.5749,86.7050,273.5158,0,U,57189,999,16422,.53792E-3,.18782E-3,0
POLYTECH-UNIVERSE 3 (RS46S),2023-091AB,2026-06-14T04:16:27.476256,15.19087308,.0016707,97.5053,222.9847,136.3361,223.9198,0,U,57191,999,16349,.26667E-3,.5545E-4,0
UTMN 2 (RS27S),2023-091AP,2026-06-14T02:55:07.561920,15.31985939,.0009417,97.5096,232.2999,92.9441,267.2878,0,U,57203,999,16407,.46635E-3,.14353E-3,0
